NORAD_CAT_ID,OBJECT_NAME,OBJECT_TYPE,EPOCH,MEAN_MOTION,ECCENTRICITY,INCLINATION,RA_OF_ASC_NODE,ARG_OF_PERICENTER,MEAN_ANOMALY,BSTAR,MEAN_MOTION_DOT,MEAN_MOTION_DDOT,TLE_LINE0,TLE_LINE1,TLE_LINE2,SEMIMAJOR_AXIS,PERIOD,APOGEE,PERIGEE,DECAYED
52554.0,STARLINK-3770,PAYLOAD,2022-07-22 22:00:00,15.0885649,0.000195,53.2175,325.7539,43.6068,337.821,-0.00031783,-5.345e-05,0.0,0 STARLINK-3770,1 52554U 22051X   22203.91667824 -.00005345  00000-0 -31783-3 0  9997,2 52554  53.2175 325.7539 0001950  43.6068 337.8210 15.08856490 11295,6917.83,95.437,541.044,538.346,0.0
52554.0,STARLINK-3770,PAYLOAD,2022-07-23 14:00:01,15.08843535,0.0002020999999999,53.2175,322.7613,49.6714,355.0302,-0.0014347,-0.00023052,0.0,0 STARLINK-3770,1 52554U 22051X   22204.58335648 -.00023052  00000-0 -14347-2 0  9998,2 52554  53.2175 322.7613 0002021  49.6714 355.0302 15.08843535  1300,6917.87,95.437,541.133,538.336,0.0
52554.0,STARLINK-3770,PAYLOAD,2022-07-23 22:00:00,15.08854809,0.0002025,53.2172,321.2647,47.2815,8.9498,-0.00069871,-0.00011396,0.0,0 STARLINK-3770,1 52554U 22051X   22204.91667824 -.00011396  00000-0 -69871-3 0  9990,2 52554  53.2172 321.2647 0002025  47.2815   8.9498 15.08854809  1304,6917.835,95.437,541.101,538.299,0.0
52554.0,STARLINK-3770,PAYLOAD,2022-07-24 14:00:01,15.08867001,0.0002013,53.2173,318.2723,48.8594,30.5773,-0.0037314999999999,-0.00059232,0.0,0 STARLINK-3770,1 52554U 22051X   22205.58334491 -.00059232  00000-0 -37315-2 0  9993,2 52554  53.2173 318.2723 0002013  48.8594  30.5773 15.08867001  1309,6917.7980000000025,95.436,541.055,538.27,0.0
52554.0,STARLINK-3770,PAYLOAD,2022-07-24 22:00:00,15.08844412,0.0001956999999999,53.2172,316.7755,45.5891,45.4453,-0.0012546,-0.00020202,0.0,0 STARLINK-3770,1 52554U 22051X   22205.91667824 -.00020202  00000-0 -12546-2 0  9993,2 52554  53.2172 316.7755 0001957  45.5891  45.4453 15.08844412 11599,6917.8669999999975,95.437,541.086,538.378,0.0
52554.0,STARLINK-3770,PAYLOAD,2022-07-25 14:00:01,15.08845592,0.0002025,53.2174,313.7832,47.6186,66.6017,-0.00061252,-0.00010025,0.0,0 STARLINK-3770,1 52554U 22051X   22206.58334491 -.00010025  00000-0 -61252-3 0  9999,2 52554  53.2174 313.7832 0002025  47.6186  66.6017 15.08845592  1300,6917.863,95.437,541.129,538.327,0.0
52554.0,STARLINK-3770,PAYLOAD,2022-07-25 22:00:00,15.08874686,0.0001974,53.2175,312.2864,45.0188,80.7938,-0.0043332,-0.00068661,0.0,0 STARLINK-3770,1 52554U 22051X   22206.91667824 -.00068661  00000-0 -43332-2 0  9992,2 52554  53.2175 312.2864 0001974  45.0188  80.7938 15.08874686  1301,6917.774,95.435,541.005,538.274,0.0
52554.0,STARLINK-3770,PAYLOAD,2022-07-26 14:00:01,15.08831364,0.0002016,53.2179,309.2943,45.0042,103.9989,-0.00022009,-3.788e-05,0.0,0 STARLINK-3770,1 52554U 22051X   22207.58334491 -.00003788  00000-0 -22009-3 0  9995,2 52554  53.2179 309.2943 0002016  45.0042 103.9989 15.08831364  1306,6917.906999999997,95.438,541.1659999999998,538.377,0.0
52554.0,STARLINK-3770,PAYLOAD,2022-07-26 22:00:00,15.08852669,0.0001976999999999,53.2179,307.7975,44.1125,116.4693,-0.0017169,-0.00027519,0.0,0 STARLINK-3770,1 52554U 22051X   22207.91667824 -.00027519  00000-0 -17169-2 0  9999,2 52554  53.2179 307.7975 0001977  44.1125 116.4693 15.08852669  1303,6917.842,95.437,541.0740000000002,538.339,0.0
52554.0,STARLINK-3770,PAYLOAD,2022-07-27 14:00:01,15.0885581,0.0002038,53.2183,304.8056,44.1668,139.6196,-0.0019554999999999,-0.00031289,0.0,0 STARLINK-3770,1 52554U 22051X   22208.58334491 -.00031289  00000-0 -19555-2 0  9994,2 52554  53.2183 304.8056 0002038  44.1668 139.6196 15.08855810  1303,6917.831999999999,95.437,541.107,538.2869999999998,0.0
52554.0,STARLINK-3770,PAYLOAD,2022-07-27 16:00:00,15.08840868,0.0002053,53.2184,304.4318,42.8224,233.8692,-0.00040834,-6.781e-05,0.0,0 STARLINK-3770,1 52554U 22051X   22208.66667824 -.00006781  00000-0 -40834-3 0  9996,2 52554  53.2184 304.4318 0002053  42.8224 233.8692 15.08840868 12016,6917.878000000002,95.437,541.163,538.322,0.0
52554.0,STARLINK-3770,PAYLOAD,2022-07-27 22:00:00,15.08848116,0.0001914,53.2182,303.3085,42.3717,153.0135,-0.002473,-0.0003944,0.0,0 STARLINK-3770,1 52554U 22051X   22208.91667824 -.00039440  00000-0 -24730-2 0  9998,2 52554  53.2182 303.3085 0001914  42.3717 153.0135 15.08848116  1309,6917.856,95.437,541.045,538.3969999999998,0.0
52554.0,STARLINK-3770,PAYLOAD,2022-07-28 14:00:01,15.08832401,0.0002,53.2183,300.317,42.5578,176.0133,0.00056609,8.731e-05,0.0,0 STARLINK-3770,1 52554U 22051X   22209.58334491  .00008731  00000-0  56609-3 0  9991,2 52554  53.2183 300.3170 0002000  42.5578 176.0133 15.08832401  1309,6917.904,95.438,541.1519999999998,538.385,0.0
52554.0,STARLINK-3770,PAYLOAD,2022-07-28 22:00:00,15.08860295,0.0001885,53.2181,298.8197,42.8264,187.3317,-0.0020024,-0.00032033,0.0,0 STARLINK-3770,1 52554U 22051X   22209.91667824 -.00032033  00000-0 -20024-2 0  9992,2 52554  53.2181 298.8197 0001885  42.8264 187.3317 15.08860295  1303,6917.818,95.436,540.987,538.379,0.0
52554.0,STARLINK-3770,PAYLOAD,2022-07-29 00:00:00,15.08844237,0.0001829,53.2182,298.4453,44.2792,278.7854,-7.1655e-05,-1.429e-05,0.0,0 STARLINK-3770,1 52554U 22051X   22210.00001157 -.00001429  00000-0 -71655-4 0  9998,2 52554  53.2182 298.4453 0001829  44.2792 278.7854 15.08844237 12216,6917.8669999999975,95.437,540.998,538.467,0.0
52554.0,STARLINK-3770,PAYLOAD,2022-07-29 14:00:01,15.08819271,0.0001906999999999,53.218,295.8283,40.1041,213.2648,0.00029453,4.4e-05,0.0,0 STARLINK-3770,1 52554U 22051X   22210.58334491  .00004400  00000-0  29453-3 0  9999,2 52554  53.2180 295.8283 0001907  40.1041 213.2648 15.08819271  1308,6917.944,95.439,541.128,538.489,0.0
52554.0,STARLINK-3770,PAYLOAD,2022-07-29 22:00:00,15.08840049,0.000178,53.2176,294.331,41.0534,223.8843,-0.0021258,-0.00033961,0.0,0 STARLINK-3770,1 52554U 22051X   22210.91667824 -.00033961  00000-0 -21258-2 0  9995,2 52554  53.2176 294.3310 0001780  41.0534 223.8843 15.08840049  1305,6917.88,95.438,540.977,538.514,0.0
52554.0,STARLINK-3770,PAYLOAD,2022-07-30 06:00:00,15.08831743,0.0001691,53.2176,292.8343,46.6369,229.8802,0.00057238,8.831e-05,0.0,0 STARLINK-3770,1 52554U 22051X   22211.25001157  .00008831  00000-0  57238-3 0  9998,2 52554  53.2176 292.8343 0001691  46.6369 229.8802 15.08831743 12407,6917.906,95.438,540.94,538.601,0.0
52554.0,STARLINK-3770,PAYLOAD,2022-07-30 14:00:01,15.08818776,0.0001909,53.2173,291.3398,41.1359,246.9715,0.001129,0.00017715,0.0,0 STARLINK-3770,1 52554U 22051X   22211.58334491  .00017715  00000-0  11290-2 0  9992,2 52554  53.2173 291.3398 0001909  41.1359 246.9715 15.08818776  1300,6917.945,95.439,541.131,538.49,0.0
52554.0,STARLINK-3770,PAYLOAD,2022-07-30 22:00:00,15.08845451,0.0001786999999999,53.2168,289.8423,42.2101,257.474,-0.0018920999999999,-0.0003028,0.0,0 STARLINK-3770,1 52554U 22051X   22211.91667824 -.00030280  00000-0 -18921-2 0  9990,2 52554  53.2168 289.8423 0001787  42.2101 257.4740 15.08845451  1301,6917.864000000001,95.437,540.965,538.493,0.0
52554.0,STARLINK-3770,PAYLOAD,2022-07-31 06:00:02,15.08842048,0.0001725,53.2168,288.3455,47.2031,264.1297,0.00015403,2.164e-05,0.0,0 STARLINK-3770,1 52554U 22051X   22212.25002315  .00002164  00000-0  15403-3 0  9997,2 52554  53.2168 288.3455 0001725  47.2031 264.1297 15.08842048 12559,6917.874,95.437,540.932,538.5459999999998,0.0
52554.0,STARLINK-3770,PAYLOAD,2022-07-31 14:00:01,15.08822802,0.000194,53.2165,286.8509,41.697,281.1724,0.0015234,0.00024029,0.0,0 STARLINK-3770,1 52554U 22051X   22212.58334491  .00024029  00000-0  15234-2 0  9991,2 52554  53.2165 286.8509 0001940  41.6970 281.1724 15.08822802  1309,6917.933000000001,95.439,541.14,538.456,0.0
52554.0,STARLINK-3770,PAYLOAD,2022-07-31 22:00:00,15.0884902,0.0001825,53.2162,285.3532,42.8302,291.6247,-0.0015186,-0.00024382,0.0,0 STARLINK-3770,1 52554U 22051X   22212.91667824 -.00024382  00000-0 -15186-2 0  9997,2 52554  53.2162 285.3532 0001825  42.8302 291.6247 15.08849020  1307,6917.853,95.437,540.98,538.455,0.0
52554.0,STARLINK-3770,PAYLOAD,2022-08-01 14:00:01,15.08828208,0.0002004,53.2161,282.3617,41.6202,316.0378,0.0019297,0.00030547,0.0,0 STARLINK-3770,1 52554U 22051X   22213.58334491  .00030547  00000-0  19297-2 0  9997,2 52554  53.2161 282.3617 0002004  41.6202 316.0378 15.08828208 12756,6917.916,95.438,541.168,538.395,0.0
52554.0,STARLINK-3770,PAYLOAD,2022-08-01 22:00:00,15.08854553,0.0001879,53.216,280.8637,42.827,326.4284,-0.00099914,-0.00016161,0.0,0 STARLINK-3770,1 52554U 22051X   22213.91667824 -.00016161  00000-0 -99914-3 0  9996,2 52554  53.2160 280.8637 0001879  42.8270 326.4284 15.08854553  1309,6917.8359999999975,95.437,541.001,538.401,0.0
52554.0,STARLINK-3770,PAYLOAD,2022-08-02 06:00:02,15.08873338,0.0001841,53.2161,279.3671,44.7486,336.1695,-0.0036435,-0.00057862,0.0,0 STARLINK-3770,1 52554U 22051X   22214.25002315 -.00057862  00000-0 -36435-2 0  9993,2 52554  53.2161 279.3671 0001841  44.7486 336.1695 15.08873338 12858,6917.778,95.435,540.9169999999998,538.37,0.0
52554.0,STARLINK-3770,PAYLOAD,2022-08-02 14:00:01,15.08806155,0.0002006999999999,53.2161,277.8723,38.7111,353.7584,0.0023084,0.00036608,0.0,0 STARLINK-3770,1 52554U 22051X   22214.58334491  .00036608  00000-0  23084-2 0  9991,2 52554  53.2161 277.8723 0002007  38.7111 353.7584 15.08806155  1305,6917.984,95.44,541.237,538.46,0.0
52554.0,STARLINK-3770,PAYLOAD,2022-08-03 06:00:00,15.08848568,0.0001903,53.2164,274.8778,43.3172,12.3053,-0.00091498,-0.00014824,0.0,0 STARLINK-3770,1 52554U 22051X   22215.25001157 -.00014824  00000-0 -91498-3 0  9999,2 52554  53.2164 274.8778 0001903  43.3172  12.3053 15.08848568 13001,6917.854,95.437,541.036,538.403,0.0
52554.0,STARLINK-3770,PAYLOAD,2022-08-03 14:00:01,15.08815632,0.0002089,53.2165,273.3829,38.7226,28.502,0.0027046999999999,0.00042992,0.0,0 STARLINK-3770,1 52554U 22051X   22215.58334491  .00042992  00000-0  27047-2 0  9998,2 52554  53.2165 273.3829 0002089  38.7226  28.5020 15.08815632  1306,6917.955,95.439,541.265,538.375,0.0
